OPTICUBE 04             
1 41851U 16067D   25014.43560018  .00004589  00000+0  32107-3 0  9999
2 41851  98.0860 194.9071 0018170  68.6989 291.6174 15.05687280446990
AEROCUBE 8D             
1 41852U 16067E   25014.45543682  .00010272  00000+0  57011-3 0  9997
2 41852  98.1102 202.2408 0005178 108.0162 252.1632 15.13949466447295
AEROCUBE 8C             
1 41853U 16067F   25014.93242006  .00010490  00000+0  58107-3 0  9996
2 41853  98.0924 200.8315 0007596  46.0976 314.0880 15.14000586447350
PROMETHEUS 2-1          
1 41854U 16067G   25014.53429756  .00034232  00000+0  10765-2 0  9999
2 41854  98.0906 212.4755 0009856  46.0247 314.1804 15.32848787447923
PROMETHEUS 2-3          
1 41855U 16067H   25014.47432104  .00034500  00000+0  10879-2 0  9998
2 41855  98.0845 211.6962 0008491  55.3627 304.8412 15.32771652447912
CORVUS BC2              
1 42846U 17042X   25014.95479474  .00004500  00000+0  35548-3 0  9995
2 42846  97.3667 194.7716 0014412  66.9579 293.3164 15.01072333409177
CORVUS BC1              
1 42847U 17042Y   25014.49465240  .00004951  00000+0  38899-3 0  9993
2 42847  97.3685 194.7610 0013860  45.4494 314.7860 15.01238671409120
MIRATA                  
1 43015U 17073C   25014.63741533  .00043302  00000+0  12783-2 0  9999
2 43015  97.5642 265.2284 0120014 248.4445 110.3969 15.27917646388372
MAKERSAT 0              
1 43016U 17073D   25014.59680660  .00020914  00000+0  97445-3 0  9991
2 43016  97.5423 254.6569 0163170 283.9036  74.4090 15.08789951387669
SIRION PATHFINDER-2     
1 43759U 18099B   25014.67151326  .00006284  00000+0  41990-3 0  9993
2 43759  97.5013  71.1706 0008562 290.0176  70.0130 15.07303544334310
CORVUS BC4              
1 43767U 18099K   25014.70241711  .00005825  00000+0  40244-3 0  9995
2 43767  97.4822  67.6624 0009356 351.5478   8.5590 15.06080619334180
MOVE-II                 
1 43780U 18099Y   25014.71988523  .00048185  00000+0  13091-2 0  9995
2 43780  97.4903  84.2427 0004009 322.0102  38.0859 15.37412075335162
SPACEBEE-7              
1 43816U 18099BL  25014.95163051  .00025583  00000+0  10320-2 0  9991
2 43816  97.5195  83.5457 0006729 272.0969  87.9498 15.24770681334524
SHIELDS 1               
1 43850U 18104B   25014.33820394  .00028190  00000+0  50345-3 0  9997
2 43850  85.0213 138.6342 0008316 357.0011   3.1194 15.49859365338729
SONATE                  
1 44400U 19038Q   25014.92550041  .00051461  00000+0  77972-3 0  9992
2 44400  97.7106  27.3235 0013410  70.2768 289.9930 15.54386745306721
DUCHIFAT-3              
1 44854U 19089C   25014.84043598  .00032170  00000+0  10375-2 0  9995
2 44854  36.9473 191.1747 0009926  58.6396 301.5326 15.31247214280552
M2 PATHFINDER           
1 45727U 20037E   25014.44719987  .00005449  00000+0  43920-3 0  9990
2 45727  97.7818 196.3536 0012856 113.2089 247.0489 15.00266607247589
NETSAT-4                
1 46504U 20068U   25014.91060343  .00017043  00000+0  70671-3 0  9991
2 46504  97.8310 345.3510 0008585   7.5177 352.6186 15.23922950236317
NETSAT-3                
1 46505U 20068V   25014.85387270  .00015959  00000+0  67943-3 0  9998
2 46505  97.8296 344.5251 0008539  16.9207 343.2312 15.23047135236287
NETSAT-1                
1 46506U 20068W   25014.84307545  .00012174  00000+0  57300-3 0  9997
2 46506  97.8323 343.2471 0008215  28.5992 331.5691 15.19677511236192
NETSAT-2                
1 46507U 20068X   25014.87236341  .00016233  00000+0  67739-3 0  9993
2 46507  97.8301 344.8766 0007521  34.1399 326.0319 15.23729067236258
WILDTRACKCUBE-SIMBA     
1 47941U 21022K   25014.95820040  .00024714  00000+0  74435-3 0  9995
2 47941  97.4394 277.2774 0013968 110.2446 250.0300 15.34235130210789
GRBALPHA                
1 47959U 21022AD  25014.91918426  .00054753  00000+0  10515-2 0  9990
2 47959  97.4383 281.5666 0012028  94.3872 265.8752 15.47707586209882
BEESAT-8                
1 48085U 21022AP  25014.72168404  .00696772  19252-3  23984-2 0  9993
2 48085  97.4778 289.8769 0011945  89.7917 270.4724 15.89477233210603
LEDSAT                  
1 49069U 21073D   25014.83588989  .00035830  00000+0  85917-3 0  9992
2 49069  97.4107  92.4359 0013097 248.6096 111.3753 15.41225418188859
ROBUSTA-1F (MTCUBE 2)   
1 53109U 22080E   25014.29281531 -.00000003  00000+0  00000+0 0  9995
2 53109  70.1269 118.7182 0008406  41.9120 318.2182  6.42583975 58724
SITRO-AIS 5 (KATYS)     
1 57176U 23091L   25014.91703576  .00011230  00000+0  59655-3 0  9990
2 57176  97.5826  71.8990 0016694 113.1984 247.1009 15.15356244 85486
SITRO-AIS 6 (CHIRKIN)   
1 57192U 23091AC  25014.89767150  .00011590  00000+0  61635-3 0  9993
2 57192  97.5827  71.9090 0016549 112.9145 247.3836 15.15310656 85489
SITRO-AIS 8 (ANOKHIN)   
1 57193U 23091AD  25014.91849055  .00012312  00000+0  63743-3 0  9997
2 57193  97.5823  72.1759 0016119 113.1274 247.1659 15.16247157 85500
SITRO-AIS 7 (FARTUSHNIY)
1 57194U 23091AE  25014.91236058  .00011257  00000+0  59957-3 0  9990
2 57194  97.5823  71.8804 0016405 113.5659 246.7298 15.15265018 85483
SITRO-AIS 10 (BURDAEV)  
1 57199U 23091AK  25014.92116669  .00014209  00000+0  68368-3 0  9997
2 57199  97.5836  73.8130 0011777  99.7465 260.5100 15.18833675 85606
SITRO-AIS 9 (SHCHUKIN)  
1 57201U 23091AM  25014.92549983  .00013240  00000+0  63904-3 0  9995
2 57201  97.5832  73.7707 0011755  99.7287 260.5275 15.18742506 85608
SITRO-AIS 12 (SMIRENNIY)
1 57204U 23091AQ  25014.92675033  .00013605  00000+0  65281-3 0  9999
2 57204  97.5841  73.9912 0011721  94.5826 265.6747 15.18939329 85618
SITRO-AIS 11 (SHEFFER)  
1 57208U 23091AU  25014.89581302  .00013835  00000+0  66106-3 0  9996
2 57208  97.5841  74.0152 0011573  94.7675 265.4881 15.19083053 85611
VERONIKA                
1 58261U 23174F   25014.87941407  .00048471  00000+0  11916-2 0  9994
2 58261  97.4355  95.9611 0008040 210.3083 149.7699 15.40457697 66068
ROBUSTA-1E (ENSO)       
1 58470U 23185J   25014.91366874  .00034410  00000+0  89448-3 0  9996
2 58470  97.3973  87.1509 0008468 244.5107 115.5263 15.38824887 62514
SITRO-AIS 29            
1 59052U 24039B   25014.90506955  .00065475  00000+0  10617-2 0  9993
2 59052  97.4111 344.5980 0012023 153.1476 207.0401 15.52467805 49138
SITRO-AIS 30            
1 59053U 24039C   25014.94488439  .00064699  00000+0  10784-2 0  9996
2 59053  97.4104 344.5388 0011963 154.9261 205.2575 15.51700974 49123
SITRO-AIS 31            
1 59054U 24039D   25014.89953375  .00064072  00000+0  10460-2 0  9993
2 59054  97.4122 344.5996 0011719 156.9837 203.1943 15.52288805 49142
SITRO-AIS 33            
1 59055U 24039E   25014.93906364  .00068247  00000+0  11080-2 0  9992
2 59055  97.4108 344.7126 0011543 153.8545 206.3293 15.52428866 49147
SITRO-AIS 35            
1 59056U 24039F   25014.93090711  .00066512  00000+0  10763-2 0  9993
2 59056  97.4120 344.7176 0011405 156.7363 203.4408 15.52529221 49147
SITRO-AIS 32            
1 59057U 24039G   25014.90627351  .00061014  00000+0  10070-2 0  9990
2 59057  97.4119 344.6077 0011704 156.1163 204.0635 15.51996590 49133
SITRO-AIS 34            
1 59058U 24039H   25014.93889746  .00068912  00000+0  11207-2 0  9999
2 59058  97.4111 344.7153 0011520 153.9875 206.1959 15.52379004 49142
SITRO-AIS 36            
1 59059U 24039J   25014.91611776  .00062646  00000+0  10174-2 0  9994
2 59059  97.4103 344.7383 0010992 155.0062 205.1725 15.52449639 49144
SITRO-AIS 49            
1 59060U 24039K   25014.94252161  .00064923  00000+0  10716-2 0  9990
2 59060  97.4107 344.7088 0011441 154.7363 205.4451 15.51981662 49147
SITRO-AIS 50            
1 59061U 24039L   25014.94085626  .00069310  00000+0  11014-2 0  9998
2 59061  97.4098 344.8554 0011183 151.6375 208.5489 15.53026496 49151
SITRO-AIS 51            
1 59062U 24039M   25014.93491198  .00067645  00000+0  10671-2 0  9990
2 59062  97.4102 344.8599 0011202 151.8685 208.3176 15.53236129 49152
SITRO-AIS 52            
1 59063U 24039N   25014.91512647  .00063652  00000+0  10017-2 0  9990
2 59063  97.4112 344.8948 0010927 154.6530 205.5261 15.53322898 49158
SITRO-AIS 25            
1 59066U 24039R   25014.88560461  .00006615  00000+0  58626-3 0  9991
2 59066  95.3836 240.9624 0160518 333.3175  25.9850 14.86970991 47526
SITRO-AIS 26            
1 59067U 24039S   25014.89735483  .00006268  00000+0  55743-3 0  9992
2 59067  95.3837 240.9512 0160677 333.4083  25.8960 14.86833975 47520
SITRO-AIS 27            
1 59068U 24039T   25014.92293498  .00005995  00000+0  53015-3 0  9998
2 59068  95.3839 241.0423 0160012 332.9069  26.3865 14.87128400 47539
SITRO-AIS 28            
1 59071U 24039U   25014.91398259  .00006534  00000+0  57719-3 0  9997
2 59071  95.3841 241.0541 0159831 332.8882  26.4056 14.87169986 47533
GRBBETA                 
1 60237U 24128C   25014.90257944  .00004856  00000+0  39554-3 0  9998
2 60237  61.9910 226.6670 0035573  23.2156 337.0531 15.00384571 28328
OOV-CUBE (TUBSAT-30)    
1 60240U 24128F   25014.89947982  .00003103  00000+0  27001-3 0  9996
2 60240  61.9951 227.8185 0033984  18.9837 341.2510 14.98771079 28314
ROBUSTA-3A (MEDITERRAN*)
1 60243U 24128J   25014.87669619  .00006732  00000+0  53283-3 0  9997
2 60243  61.9879 227.0235 0033609  14.7114 345.4946 15.01082184 28327
